{
  "links" : {
    "next" : "https://api.nasa.gov/neo/rest/v1/feed?start_date=2013-10-23&end_date=2013-10-23&detailed=true&api_key=t0TVs3DtDT2H8Oy2Zy8m2eVrNsAVKAexjcZXUckd",
    "prev" : "https://api.nasa.gov/neo/rest/v1/feed?start_date=2013-10-21&end_date=2013-10-21&detailed=true&api_key=t0TVs3DtDT2H8Oy2Zy8m2eVrNsAVKAexjcZXUckd",
    "self" : "https://api.nasa.gov/neo/rest/v1/feed?start_date=2013-10-22&end_date=2013-10-22&detailed=true&api_key=t0TVs3DtDT2H8Oy2Zy8m2eVrNsAVKAexjcZXUckd"
  },
  "element_count" : 9,
  "near_earth_objects" : {
    "2013-10-22" : [ {
      "links" : {
        "self" : "https://api.nasa.gov/neo/rest/v1/neo/3667135?api_key=t0TVs3DtDT2H8Oy2Zy8m2eVrNsAVKAexjcZXUckd"
      },
      "neo_reference_id" : "3667135",
      "name" : "(2014 GH45)",
      "nasa_jpl_url" : "http://ssd.jpl.nasa.gov/sbdb.cgi?sstr=3667135",
      "absolute_magnitude_h" : 24.9,
      "estimated_diameter" : {
        "kilometers" : {
          "estimated_diameter_min" : 0.0278326768,
          "estimated_diameter_max" : 0.0622357573
        },
        "meters" : {
          "estimated_diameter_min" : 27.8326768072,
          "estimated_diameter_max" : 62.2357573367
        },
        "miles" : {
          "estimated_diameter_min" : 0.0172944182,
          "estimated_diameter_max" : 0.0386714948
        },
        "feet" : {
          "estimated_diameter_min" : 91.3145593761,
          "estimated_diameter_max" : 204.1855621004
        }
      },
      "is_potentially_hazardous_asteroid" : false,
      "close_approach_data" : [ {
        "close_approach_date" : "2013-10-22",
        "epoch_date_close_approach" : 1382425200000,
        "relative_velocity" : {
          "kilometers_per_second" : "14.4529637516",
          "kilometers_per_hour" : "52030.6695056956",
          "miles_per_hour" : "32329.834615914"
        },
        "miss_distance" : {
          "astronomical" : "0.2924982049",
          "lunar" : "113.7817993164",
          "kilometers" : "43757108",
          "miles" : "27189406"
        },
        "orbiting_body" : "Earth"
      } ],
      "orbital_data" : {
        "orbit_id" : "6",
        "orbit_determination_date" : "2017-04-06 08:41:38",
        "orbit_uncertainty" : "8",
        "minimum_orbit_intersection" : ".0779967",
        "jupiter_tisserand_invariant" : "5.308",
        "epoch_osculation" : "2456756.5",
        "eccentricity" : ".1304093186204849",
        "semi_major_axis" : "1.166621595564767",
        "inclination" : "25.39713841617651",
        "ascending_node_longitude" : "194.9361847731636",
        "orbital_period" : "460.2496258120088",
        "perihelion_distance" : "1.014483268199223",
        "perihelion_argument" : "298.1703458587799",
        "aphelion_distance" : "1.318759922930311",
        "perihelion_time" : "2456688.708332256595",
        "mean_anomaly" : "53.02557355602097",
        "mean_motion" : ".7821842317956469",
        "equinox" : "J2000"
      }
    }, {
      "links" : {
        "self" : "https://api.nasa.gov/neo/rest/v1/neo/3409703?api_key=t0TVs3DtDT2H8Oy2Zy8m2eVrNsAVKAexjcZXUckd"
      },
      "neo_reference_id" : "3409703",
      "name" : "(2008 HO3)",
      "nasa_jpl_url" : "http://ssd.jpl.nasa.gov/sbdb.cgi?sstr=3409703",
      "absolute_magnitude_h" : 18.2,
      "estimated_diameter" : {
        "kilometers" : {
          "estimated_diameter_min" : 0.6089126221,
          "estimated_diameter_max" : 1.3615700154
        },
        "meters" : {
          "estimated_diameter_min" : 608.9126221057,
          "estimated_diameter_max" : 1361.5700153859
        },
        "miles" : {
          "estimated_diameter_min" : 0.3783606449,
          "estimated_diameter_max" : 0.846040122
        },
        "feet" : {
          "estimated_diameter_min" : 1997.7448871092,
          "estimated_diameter_max" : 4467.0933692788
        }
      },
      "is_potentially_hazardous_asteroid" : false,
      "close_approach_data" : [ {
        "close_approach_date" : "2013-10-22",
        "epoch_date_close_approach" : 1382425200000,
        "relative_velocity" : {
          "kilometers_per_second" : "21.2680269239",
          "kilometers_per_hour" : "76564.8969259856",
          "miles_per_hour" : "47574.4494260381"
        },
        "miss_distance" : {
          "astronomical" : "0.3234176517",
          "lunar" : "125.8094711304",
          "kilometers" : "48382596",
          "miles" : "30063550"
        },
        "orbiting_body" : "Earth"
      } ],
      "orbital_data" : {
        "orbit_id" : "56",
        "orbit_determination_date" : "2017-04-06 09:03:36",
        "orbit_uncertainty" : "0",
        "minimum_orbit_intersection" : ".117926",
        "jupiter_tisserand_invariant" : "2.886",
        "epoch_osculation" : "2458000.5",
        "eccentricity" : ".6505184222498244",
        "semi_major_axis" : "2.918230979514485",
        "inclination" : "14.06563384396702",
        "ascending_node_longitude" : "206.1451365785181",
        "orbital_period" : "1820.865729783193",
        "perihelion_distance" : "1.019867966960162",
        "perihelion_argument" : "128.8186028222021",
        "aphelion_distance" : "4.816593992068807",
        "perihelion_time" : "2458373.149777495649",
        "mean_anomaly" : "286.3241008361408",
        "mean_motion" : ".1977081528372027",
        "equinox" : "J2000"
      }
    }, {
      "links" : {
        "self" : "https://api.nasa.gov/neo/rest/v1/neo/3626735?api_key=t0TVs3DtDT2H8Oy2Zy8m2eVrNsAVKAexjcZXUckd"
      },
      "neo_reference_id" : "3626735",
      "name" : "(2013 CN118)",
      "nasa_jpl_url" : "http://ssd.jpl.nasa.gov/sbdb.cgi?sstr=3626735",
      "absolute_magnitude_h" : 25.5,
      "estimated_diameter" : {
        "kilometers" : {
          "estimated_diameter_min" : 0.0211132445,
          "estimated_diameter_max" : 0.0472106499
        },
        "meters" : {
          "estimated_diameter_min" : 21.113244479,
          "estimated_diameter_max" : 47.2106498806
        },
        "miles" : {
          "estimated_diameter_min" : 0.0131191578,
          "estimated_diameter_max" : 0.0293353287
        },
        "feet" : {
          "estimated_diameter_min" : 69.2691770164,
          "estimated_diameter_max" : 154.8905885541
        }
      },
      "is_potentially_hazardous_asteroid" : false,
      "close_approach_data" : [ {
        "close_approach_date" : "2013-10-22",
        "epoch_date_close_approach" : 1382425200000,
        "relative_velocity" : {
          "kilometers_per_second" : "13.1814384221",
          "kilometers_per_hour" : "47453.1783197191",
          "miles_per_hour" : "29485.5596064944"
        },
        "miss_distance" : {
          "astronomical" : "0.3667760731",
          "lunar" : "142.6758880615",
          "kilometers" : "54868920",
          "miles" : "34093968"
        },
        "orbiting_body" : "Earth"
      } ],
      "orbital_data" : {
        "orbit_id" : "4",
        "orbit_determination_date" : "2017-04-06 08:46:48",
        "orbit_uncertainty" : "8",
        "minimum_orbit_intersection" : ".0081446",
        "jupiter_tisserand_invariant" : "6.391",
        "epoch_osculation" : "2456338.5",
        "eccentricity" : ".326386899716484",
        "semi_major_axis" : ".9303923161258011",
        "inclination" : "3.223455026294981",
        "ascending_node_longitude" : "143.6636148559372",
        "orbital_period" : "327.7914333854019",
        "perihelion_distance" : ".6267244525454619",
        "perihelion_argument" : "232.6935068737462",
        "aphelion_distance" : "1.23406017970614",
        "perihelion_time" : "2456253.405230433044",
        "mean_anomaly" : "93.45612460861962",
        "mean_motion" : "1.09825932997074",
        "equinox" : "J2000"
      }
    } ]
  }
}